#dP2022  7 12 12  0  0.00000000      96 __u+U ITR00 EXT  IAC
## 2218 216000.00000000   900.00000000 59772 0.5000000000000
+  115   C06C07C08C09C10C11C12C13C14C16C19C20C21C22C23C24C25
+        C26C27C28C29C30C32C33C34C35C36C37C39C40C41C42C43C44
+        C45C46E01E02E03E04E05E07E08E09E10E11E12E13E14E15E18
+        E19E21E24E25E26E27E30E31E33E34E36G01G02G03G04G05G06
+        G07G08G09G10G11G12G13G14G15G16G17G18G19G20G21G22G23
+        G24G25G26G27G28G29G30G31G32J02J03R01R02R03R04R05R07
+        R08R09R11R12R13R14R15R17R18R19R20R21R24  0  0  0  0
++         8  8  0  8  7  9  9 10  8  8  9  9  9  9 10  8  8
++         8  8  9  8  8  7  9 10  7  7  8  8 10  9  8  8 11
++         7  9  7  7  7  8  9  7  8  8  8  9  8  8  8  8  8
++         8  9  8  9  8  7  7  8  8 11  9  7  7  7  8  7  6
++         8  9  8  7  7  8  6  8  8  7  8  8  8  7  7  9  7
++         7  8  8 10  9  8  8  7  9  9 10  9  9  9  9  9  9
++         8  6  7  8  8  9  8  9  8  9  9  8  9  0  0  0  0
%c M  cc GPS ccc cccc cccc cccc cccc ccccc ccccc ccccc ccccc
%c cc cc ccc ccc cccc cccc cccc cccc ccccc ccccc ccccc ccccc
%f  0.0000000  0.000000000  0.00000000000  0.000000000000000
%f  0.0000000  0.000000000  0.00000000000  0.000000000000000
%i    0    0    0    0      0      0      0      0         0
%i    0    0    0    0      0      0      0      0         0
/* IAC                                ULTRA-RAPID PREDICTION
/* S/V CLOCKS ARE ALIGNED TO GNSS TIME                      
/* G:C1WC2W R:C1PC2P E:C1XC5X C:C2IC6I J:C1CC2S             
/* PCV:IGS14_2215 OL/AL:FES2004  NONE     YN ORB:CoN CLK:CoN
*  2022 07 13  6 15  0.00000000
PC06 -17910.808207  29715.944492 -24087.170404    383.283224
PC07  -5546.329083  40159.033428 -11210.896260   -422.401103
PC08   -256.256330  22958.002941  35373.364085    402.050408
PC09 -11574.872779  28561.002224 -28619.109662   -929.457618
PC10   -440.000140  41467.060187  -5588.503455    118.890432
PC11 -20716.556101  -1416.038892 -18568.149272    471.309585
PC12  -5295.054619 -14704.682880 -23091.326501   -578.300354
PC13   4318.130280  25707.292369  33329.728999     22.498724
PC14 -15271.477463 -10078.073221  21106.988729    539.222350
PC16 -20349.929132  29366.199041 -22383.888763    142.986714
PC19  15704.278003  -1295.767870 -23007.432017   -198.894789
PC20  12865.454186  18033.594506 -16938.375046   -963.944318
PC21  -2036.909974 -27845.709489    240.535639   -667.852734
PC22   9628.324727 -20727.252919 -16035.084923   -962.850819
PC23 -14162.090993  10385.796812 -21674.288856   -944.641931
PC24 -21367.628266 -16415.786870   7215.159361   -967.868734
PC25 -25368.631233  -2934.999893 -11230.661475   -708.371622
PC26  -6670.533888 -18662.705844  19624.857440    710.269144
PC27  -3703.843281  18995.296513  20083.839115    753.413023
PC28 -19715.361449  18506.050712   6882.952459     89.381000
PC29  24373.153969  -7719.378419  11176.813108    580.978320
PC30  14486.504576   8661.195477  22208.663974    501.008939
PC32   2182.219430  27812.215970   -135.300807   -972.745775
PC33 -15750.522633   1234.231655  23007.260004   -153.538568
PC34 -15411.587107  -7856.629973 -21916.955498   -360.007708
PC35  19764.636858 -18815.406931  -5777.851247    363.476194
PC36  25443.185065   3936.843159  10798.296703   -973.565625
PC37   5008.373383  18617.609259 -20160.194960   -916.399856
PC39 -24081.769422  30162.378880 -17159.577802     -0.069176
PC40 -10523.513903  37848.353236 -15023.841686     -0.503960
PC41  -9886.686217  20314.152412  16427.803351    -76.371372
PC42 -12531.847940 -18997.094604  16208.652417   -953.965051
PC43 -24332.432954   6992.590770 -11773.244484      2.621809
PC44   3102.361796 -19273.810203 -19945.968846    722.390558
PC45  13823.080973 -10505.502171  21859.722267    807.611813
PC46  22372.905770  15693.271435  -5730.946409   -429.150278
PE01 -20760.633921 -18257.487183 -10567.558167   -514.151941
PE02  20807.196271  18122.840821  10733.234075    311.630838
PE03  14845.074241   8428.596426 -24179.855675   -578.454256
PE04 -20086.462338  12305.367688  17932.136728  -1070.280113
PE05    747.585246  24667.822993 -16334.593105   -163.443820
PE07  13547.198709 -26311.709803   -861.810466   -687.025352
PE08  19945.229054 -12619.209897 -17868.349740   -562.734621
PE09 -13463.348599  26336.616011    878.227387   -585.817603
PE10 -23839.800393  10782.713093  13818.829708   -525.949363
PE11 -14676.992343  14765.954390  21027.235935   3028.208372
PE12 -28732.235735   5244.677584   4846.760995    -59.407247
PE13  15372.336001 -14550.085708 -20696.086941    429.795406
PE14   2363.212653 -27530.891353 -16939.245456  -1780.585896
PE15  28753.443145  -5214.613410  -4714.448980    733.599164
PE18  -3001.205005  20260.632878  11575.957016  -1220.151900
PE19 -13277.260359 -10984.619916  24076.637971  -5107.983210
PE21 -11864.031498 -26224.396127   6914.880122   -745.594118
PE24  -5507.327217  18992.516195 -22038.781481   -722.027254
PE25  11673.288087  26239.498029  -7160.265580   -580.864305
PE26  -7936.091655 -15251.705893 -24099.221975  -1370.991693
PE27   4479.107018 -19759.794565  21585.480211   -343.601741
PE30  18487.549902   -722.643407  23104.378633   -668.111271
PE31 -18022.381995   1730.963186 -23405.233837   -499.821286
PE33 -25104.347052  -7151.071075 -13967.015879   -454.740708
PE34  25245.009885   6981.812148  13784.390172   -485.580865
PE36   6909.556793  15266.912333  24392.377155   -401.426431
PG01 -13393.554864 -13311.267990 -19128.051822    322.451414
PG02 -10192.562100  14563.873321  20435.598463   -651.499919
PG03 -12523.776139 -23491.273094    141.856097   -305.755470
PG04  -4133.374927 -17829.679914  19223.223946   -146.517456
PG05   3259.631793  22991.690894  12589.275511    -88.942421
PG06 -23096.640201   6601.948264  11477.860676    382.763402
PG07 -25062.510333  -6405.123377   7487.957223    319.458434
PG08   1836.179881 -22258.950016 -14137.356402    -75.963098
PG09 -13104.896526  -7927.858216  21632.140750   -319.553935
PG10  16327.165864    560.256772 -20857.385070   -489.955156
PG11 -12235.787782  12728.988723  19828.036805    -10.860337
PG12   9024.352327  24930.900531  -2631.082661   -245.612644
PG13 -11887.555601  22430.312752  -7646.011098    347.430055
PG14 -17058.587550  -2183.026020 -20262.645896   -111.870451
PG15   1205.351242  22567.024160 -14123.733208    -45.838774
PG16   3653.892756 -20226.790106  16288.620419   -515.021519
PG17 -19221.027232   8518.900700 -15829.990423    636.246771
PG18  24961.265534   6145.649012   6920.762247    114.863416
PG19 -19814.582138  14959.018707  -9359.305903    183.032147
PG20  -5865.487015  16412.073521  20104.869558    503.648758
PG21  -3883.619296 -14687.038858 -21211.394896    161.130164
PG22  18593.140156 -17654.298044  -6151.265573    291.479160
PG23  18523.711206  11136.038547 -15525.033761    -32.679882
PG24   9640.643586  14655.484125 -20350.531020    198.279558
PG25  17123.923649  18168.461235   9160.404095    348.549996
PG26  10448.706071 -12403.371923  20905.214043    217.918819
PG27  12110.524860 -23231.813790  -2998.456420    220.548310
PG28 -12862.081069   7565.859197 -21475.921279    333.905155
PG29  12219.337065   8293.841725  22025.272747   -533.055648
PG30 -26514.794086    778.317327  -2947.752489   -533.859270
PG31  21904.662997  -7931.322084  13042.101295   -185.536432
PG32  18938.048249 -11403.385405 -14432.774693   -174.945273
PJ02 -21347.744124  20244.283176 -25625.213935     -1.628095
PJ03 -28278.311494  29842.370739  14134.962266     -0.114740
PR01   6273.329450  18308.046563 -16607.253894     11.397565
PR02  11016.975928  -1279.520396 -22923.173258    523.969286
PR03   9183.856570 -18709.338139 -14622.671057     60.127151
PR04   2349.567449 -25343.012403   1658.883416    150.465058
PR05  -5733.150959 -18087.318924  17048.815184     96.162538
PR07  -9030.542437  19288.221466  14113.713109     37.779729
PR08  -2247.348910  25365.295704  -1652.642504    -66.178504
PR09 -20816.758170  -6897.445275 -13074.913598     65.499841
PR11   5451.827153  15378.010941 -19586.847390     33.440156
PR12  19035.746238  16475.437427  -4121.031932     19.270865
PR13  21011.884492   8030.728295  12015.915139    -24.556965
PR14  10144.971756  -6151.256853  22595.809558     24.904499
PR15  -6053.960365 -15864.155812  19062.932929     94.704226
PR17  20851.159916 -12605.189436  -7623.051084    543.038791
PR18   7625.352204 -13117.849070 -20482.532584    123.393127
PR19  -8217.489015  -7728.353542 -22884.441430   -196.108063
PR20 -22909.157844   3691.154039 -10635.429162    -74.489358
PR21 -20063.978150  12820.105122   9102.604407   -316.986248
PR24  23079.413064  -4478.734323   9929.272409    103.312657
EOF
